start=new Date('2022-08-13T00:00:00.000Z').valueOf();
sats=[{"ECCENTRICITY":"0.00014280","SITE":"AFETR","CLASSIFICATION_TYPE":"U","NORAD_CAT_ID":"45050","MEAN_MOTION":"15.06401022","RCS_SIZE":"LARGE","EPHEMERIS_TYPE":"0","EPOCH":"2022-08-12T18:02:17.585952","COUNTRY_CODE":"US","REV_AT_EPOCH":"13977","RA_OF_ASC_NODE":"24.7006","REF_FRAME":"TEME","ELEMENT_SET_NO":"999","TLE_LINE1":"1 45050U 20006G   22224.75159243  .00005355  00000-0  37808-3 0  9997","LAUNCH_DATE":"2020-01-29","MEAN_MOTION_DOT":"0.00005355","GP_ID":"210104168","TLE_LINE2":"2 45050  53.0544  24.7006 0001428  90.4631 269.6522 15.06401022139774","SEMIMAJOR_AXIS":"6925.345","CENTER_NAME":"EARTH","PERIOD":"95.592","OBJECT_TYPE":"PAYLOAD","ARG_OF_PERICENTER":"90.4631","MEAN_ELEMENT_THEORY":"SGP4","BSTAR":"0.00037808000000","TIME_SYSTEM":"UTC","FILE":"3535519","MEAN_ANOMALY":"269.6522","OBJECT_NAME":"STARLINK-1140","MEAN_MOTION_DDOT":"0.0000000000000","PERIAPSIS":"546.221","INCLINATION":"53.0544","APOAPSIS":"548.199","DECAY_DATE":null,"OBJECT_ID":"2020-006G"},{"TLE_LINE2":"2 45051  53.0500  18.0628 0001629  94.5715 265.5463 15.14304501139866","GP_ID":"210103918","MEAN_MOTION_DOT":"0.00016603","LAUNCH_DATE":"2020-01-29","REF_FRAME":"TEME","TLE_LINE1":"1 45051U 20006H   22224.69196839  .00016603  00000-0  91050-3 0  9990","ELEMENT_SET_NO":"999","PERIOD":"95.093","SEMIMAJOR_AXIS":"6901.228","CENTER_NAME":"EARTH","ECCENTRICITY":"0.00016290","SITE":"AFETR","CLASSIFICATION_TYPE":"U","REV_AT_EPOCH":"13986","RA_OF_ASC_NODE":"18.0628","COUNTRY_CODE":"US","MEAN_MOTION":"15.14304501","NORAD_CAT_ID":"45051","RCS_SIZE":"LARGE","EPOCH":"2022-08-12T16:36:26.068896","EPHEMERIS_TYPE":"0","MEAN_MOTION_DDOT":"0.0000000000000","PERIAPSIS":"521.969","APOAPSIS":"524.217","OBJECT_ID":"2020-006H","DECAY_DATE":null,"INCLINATION":"53.0500","TIME_SYSTEM":"UTC","BSTAR":"0.00091050000000","MEAN_ELEMENT_THEORY":"SGP4","ARG_OF_PERICENTER":"94.5715","OBJECT_TYPE":"PAYLOAD","MEAN_ANOMALY":"265.5463","OBJECT_NAME":"STARLINK-1141","FILE":"3535519"},{"CENTER_NAME":"EARTH","SEMIMAJOR_AXIS":"6925.330","PERIOD":"95.592","TLE_LINE1":"1 45052U 20006J   22224.82529689  .00002930  00000-0  21547-3 0  9991","ELEMENT_SET_NO":"999","REF_FRAME":"TEME","TLE_LINE2":"2 45052  53.0552  24.3738 0001403  91.0918 269.0231 15.06405959139786","GP_ID":"210103168","MEAN_MOTION_DOT":"0.00002930","LAUNCH_DATE":"2020-01-29","RCS_SIZE":"LARGE","EPOCH":"2022-08-12T19:48:25.651296","EPHEMERIS_TYPE":"0","MEAN_MOTION":"15.06405959","NORAD_CAT_ID":"45052","RA_OF_ASC_NODE":"24.3738","REV_AT_EPOCH":"13978","COUNTRY_CODE":"US","SITE":"AFETR","CLASSIFICATION_TYPE":"U","ECCENTRICITY":"0.00014030","INCLINATION":"53.0552","OBJECT_ID":"2020-006J","DECAY_DATE":null,"APOAPSIS":"548.167","PERIAPSIS":"546.224","MEAN_MOTION_DDOT":"0.0000000000000","FILE":"3535519","OBJECT_NAME":"STARLINK-1148","MEAN_ANOMALY":"269.0231","MEAN_ELEMENT_THEORY":"SGP4","ARG_OF_PERICENTER":"91.0918","OBJECT_TYPE":"PAYLOAD","TIME_SYSTEM":"UTC","BSTAR":"0.00021547000000"},{"BSTAR":"0.00084925000000","TIME_SYSTEM":"UTC","OBJECT_TYPE":"PAYLOAD","MEAN_ELEMENT_THEORY":"SGP4","ARG_OF_PERICENTER":"84.4638","OBJECT_NAME":"STARLINK-1155","MEAN_ANOMALY":"275.6569","FILE":"3535519","PERIAPSIS":"520.715","MEAN_MOTION_DDOT":"0.0000000000000","DECAY_DATE":null,"OBJECT_ID":"2020-006K","APOAPSIS":"523.310","INCLINATION":"53.0013","SITE":"AFETR","CLASSIFICATION_TYPE":"U","ECCENTRICITY":"0.00018810","COUNTRY_CODE":"US","RA_OF_ASC_NODE":"13.7126","REV_AT_EPOCH":"13988","RCS_SIZE":"LARGE","EPHEMERIS_TYPE":"0","EPOCH":"2022-08-12T16:09:00.101376","NORAD_CAT_ID":"45053","MEAN_MOTION":"15.14660127","MEAN_MOTION_DOT":"0.00015622","LAUNCH_DATE":"2020-01-29","GP_ID":"210103417","TLE_LINE2":"2 45053  53.0013  13.7126 0001881  84.4638 275.6569 15.14660127139884","ELEMENT_SET_NO":"999","TLE_LINE1":"1 45053U 20006K   22224.67291784  .00015622  00000-0  84925-3 0  9998","REF_FRAME":"TEME","PERIOD":"95.071","CENTER_NAME":"EARTH","SEMIMAJOR_AXIS":"6900.148"},{"PERIAPSIS":"546.304","MEAN_MOTION_DDOT":"0.0000000000000","OBJECT_ID":"2020-006L","DECAY_DATE":null,"APOAPSIS":"548.154","INCLINATION":"53.0547","TIME_SYSTEM":"UTC","BSTAR":"0.00016661000000","MEAN_ELEMENT_THEORY":"SGP4","ARG_OF_PERICENTER":"98.4238","OBJECT_TYPE":"PAYLOAD","OBJECT_NAME":"STARLINK-1156","MEAN_ANOMALY":"261.6903","FILE":"3535519","TLE_LINE2":"2 45054  53.0547  24.7018 0001336  98.4238 261.6903 15.06394969139779","GP_ID":"210103668","MEAN_MOTION_DOT":"0.00002201","LAUNCH_DATE":"2020-01-29","TLE_LINE1":"1 45054U 20006L   22224.75527387  .00002201  00000-0  16661-3 0  9990","ELEMENT_SET_NO":"999","REF_FRAME":"TEME","PERIOD":"95.592","CENTER_NAME":"EARTH","SEMIMAJOR_AXIS":"6925.364","CLASSIFICATION_TYPE":"U","SITE":"AFETR","ECCENTRICITY":"0.00013360","RA_OF_ASC_NODE":"24.7018","REV_AT_EPOCH":"13977","COUNTRY_CODE":"US","EPOCH":"2022-08-12T18:07:35.662368","RCS_SIZE":"LARGE","EPHEMERIS_TYPE":"0","MEAN_MOTION":"15.06394969","NORAD_CAT_ID":"45054"},{"CENTER_NAME":"EARTH","SEMIMAJOR_AXIS":"6925.343","PERIOD":"95.592","ELEMENT_SET_NO":"999","TLE_LINE1":"1 45057U 20006P   22224.77000678  .00001521  00000-0  12097-3 0  9997","REF_FRAME":"TEME","LAUNCH_DATE":"2020-01-29","MEAN_MOTION_DOT":"0.00001521","TLE_LINE2":"2 45057  53.0580  24.6367 0001499  97.3254 262.7905 15.06401908139788","GP_ID":"210104419","RCS_SIZE":"LARGE","EPHEMERIS_TYPE":"0","EPOCH":"2022-08-12T18:28:48.585792","NORAD_CAT_ID":"45057","MEAN_MOTION":"15.06401908","COUNTRY_CODE":"US","RA_OF_ASC_NODE":"24.6367","REV_AT_EPOCH":"13978","SITE":"AFETR","CLASSIFICATION_TYPE":"U","ECCENTRICITY":"0.00014990","INCLINATION":"53.0580","DECAY_DATE":null,"OBJECT_ID":"2020-006P","APOAPSIS":"548.246","PERIAPSIS":"546.170","MEAN_MOTION_DDOT":"0.0000000000000","FILE":"3535519","OBJECT_NAME":"STARLINK-1159","MEAN_ANOMALY":"262.7905","OBJECT_TYPE":"PAYLOAD","MEAN_ELEMENT_THEORY":"SGP4","ARG_OF_PERICENTER":"97.3254","BSTAR":"0.00012097000000","TIME_SYSTEM":"UTC"},{"CENTER_NAME":"EARTH","SEMIMAJOR_AXIS":"6925.323","PERIOD":"95.592","TLE_LINE1":"1 45058U 20006Q   22224.82897991  .00004083  00000-0  29280-3 0  9994","ELEMENT_SET_NO":"999","REF_FRAME":"TEME","GP_ID":"210102668","TLE_LINE2":"2 45058  53.0568  24.3677 0001196  92.9011 267.2115 15.06408327139798","LAUNCH_DATE":"2020-01-29","MEAN_MOTION_DOT":"0.00004083","EPOCH":"2022-08-12T19:53:43.864224","RCS_SIZE":"LARGE","EPHEMERIS_TYPE":"0","MEAN_MOTION":"15.06408327","NORAD_CAT_ID":"45058","REV_AT_EPOCH":"13979","RA_OF_ASC_NODE":"24.3677","COUNTRY_CODE":"US","SITE":"AFETR","CLASSIFICATION_TYPE":"U","ECCENTRICITY":"0.00011960","INCLINATION":"53.0568","OBJECT_ID":"2020-006Q","DECAY_DATE":null,"APOAPSIS":"548.016","PERIAPSIS":"546.360","MEAN_MOTION_DDOT":"0.0000000000000","FILE":"3535519","OBJECT_NAME":"STARLINK-1162","MEAN_ANOMALY":"267.2115","ARG_OF_PERICENTER":"92.9011","MEAN_ELEMENT_THEORY":"SGP4","OBJECT_TYPE":"PAYLOAD","TIME_SYSTEM":"UTC","BSTAR":"0.00029280000000"},{"REV_AT_EPOCH":"13977","RA_OF_ASC_NODE":"24.8762","COUNTRY_CODE":"US","EPHEMERIS_TYPE":"0","RCS_SIZE":"LARGE","EPOCH":"2022-08-12T17:14:30.426144","MEAN_MOTION":"15.06406601","NORAD_CAT_ID":"45059","SITE":"AFETR","CLASSIFICATION_TYPE":"U","ECCENTRICITY":"0.00015930","PERIOD":"95.592","CENTER_NAME":"EARTH","SEMIMAJOR_AXIS":"6925.328","TLE_LINE2":"2 45059  53.0534  24.8762 0001593 107.8595 252.2567 15.06406601139772","GP_ID":"210102918","LAUNCH_DATE":"2020-01-29","MEAN_MOTION_DOT":"0.00006753","TLE_LINE1":"1 45059U 20006R   22224.71840771  .00006753  00000-0  47170-3 0  9991","ELEMENT_SET_NO":"999","REF_FRAME":"TEME","OBJECT_NAME":"STARLINK-1165","MEAN_ANOMALY":"252.2567","FILE":"3535519","TIME_SYSTEM":"UTC","BSTAR":"0.00047170000000","ARG_OF_PERICENTER":"107.8595","MEAN_ELEMENT_THEORY":"SGP4","OBJECT_TYPE":"PAYLOAD","OBJECT_ID":"2020-006R","DECAY_DATE":null,"APOAPSIS":"548.297","INCLINATION":"53.0534","PERIAPSIS":"546.090","MEAN_MOTION_DDOT":"0.0000000000000"},{"FILE":"3535519","MEAN_ANOMALY":"272.0263","OBJECT_NAME":"STARLINK-1166","OBJECT_TYPE":"PAYLOAD","MEAN_ELEMENT_THEORY":"SGP4","ARG_OF_PERICENTER":"88.0885","BSTAR":"0.00007922900000","TIME_SYSTEM":"UTC","INCLINATION":"53.0555","APOAPSIS":"548.168","DECAY_DATE":null,"OBJECT_ID":"2020-006S","MEAN_MOTION_DDOT":"0.0000000000000","PERIAPSIS":"546.245","NORAD_CAT_ID":"45060","MEAN_MOTION":"15.06402344","RCS_SIZE":"LARGE","EPOCH":"2022-08-12T17:09:11.700000","EPHEMERIS_TYPE":"0","COUNTRY_CODE":"US","RA_OF_ASC_NODE":"24.8811","REV_AT_EPOCH":"13977","ECCENTRICITY":"0.00013880","CLASSIFICATION_TYPE":"U","SITE":"AFETR","SEMIMAJOR_AXIS":"6925.341","CENTER_NAME":"EARTH","PERIOD":"95.592","REF_FRAME":"TEME","ELEMENT_SET_NO":"999","TLE_LINE1":"1 45060U 20006S   22224.71471875  .00000899  00000-0  79229-4 0  9994","LAUNCH_DATE":"2020-01-29","MEAN_MOTION_DOT":"0.00000899","TLE_LINE2":"2 45060  53.0555  24.8811 0001388  88.0885 272.0263 15.06402344139779","GP_ID":"210104169"},{"OBJECT_NAME":"STARLINK-1169","MEAN_ANOMALY":"268.5092","FILE":"3535519","BSTAR":"0.00050916000000","TIME_SYSTEM":"UTC","OBJECT_TYPE":"PAYLOAD","ARG_OF_PERICENTER":"91.6038","MEAN_ELEMENT_THEORY":"SGP4","DECAY_DATE":null,"OBJECT_ID":"2020-006T","APOAPSIS":"548.027","INCLINATION":"53.0537","PERIAPSIS":"546.328","MEAN_MOTION_DDOT":"0.0000000000000","COUNTRY_CODE":"US","RA_OF_ASC_NODE":"24.8417","REV_AT_EPOCH":"13977","EPHEMERIS_TYPE":"0","RCS_SIZE":"LARGE","EPOCH":"2022-08-12T17:19:48.603648","NORAD_CAT_ID":"45061","MEAN_MOTION":"15.06411796","SITE":"AFETR","CLASSIFICATION_TYPE":"U","ECCENTRICITY":"0.00012270","PERIOD":"95.591","CENTER_NAME":"EARTH","SEMIMAJOR_AXIS":"6925.312","LAUNCH_DATE":"2020-01-29","MEAN_MOTION_DOT":"0.00007313","TLE_LINE2":"2 45061  53.0537  24.8417 0001227  91.6038 268.5092 15.06411796139775","GP_ID":"210103919","ELEMENT_SET_NO":"999","TLE_LINE1":"1 45061U 20006T   22224.72209032  .00007313  00000-0  50916-3 0  9999","REF_FRAME":"TEME"}];
